{"type": "FeatureCollection", "features": [ {"type": "Feature", "properties": {"norad_id": 37528, "name": "COSMOS 2251 DEB", "group": "cosmos-2251-debris", "lat": -45.95737348876638, "lon": -43.767701127437896, "alt_km": 718.5714017032333, "timestamp": "2025-12-14T09:36:23.435899+00:00", "meta": {"OBJECT_NAME": "COSMOS 2251 DEB", "OBJECT_ID": "1993-036BNH", "EPOCH": "2025-12-13T16:00:10.961856", "MEAN_MOTION": 14.50525422, "ECCENTRICITY": 0.00211496, "INCLINATION": 74.0364, "RA_OF_ASC_NODE": 120.3942, "ARG_OF_PERICENTER": 268.4409, "MEAN_ANOMALY": 91.4329, "EPHEMERIS_TYPE": 0, "CLASSIFICATION_TYPE": "U", "NORAD_CAT_ID": 37528, "ELEMENT_SET_NO": 999, "REV_AT_EPOCH": 85944, "BSTAR": 0.00068406361, "MEAN_MOTION_DOT": 2.659e-05, "MEAN_MOTION_DDOT": 0}, "tle": {"line1": "1 37528U 93036BNH 25347.66679354  .00002659  00000+0  68406-3 0  9991", "line2": "2 37528  74.0364 120.3942 0021149 268.4409  91.4329 14.50525422859440"}}, "geometry": {"type": "Point", "coordinates": [-43.767701127437896, -45.95737348876638]}}, {"type": "Feature", "properties": {"norad_id": 37530, "name": "COSMOS 2251 DEB", "group": "cosmos-2251-debris", "lat": 39.684060911636976, "lon": -15.657695422529347, "alt_km": 755.07227804379, "timestamp": "2025-12-14T09:36:23.435909+00:00", "meta": {"OBJECT_NAME": "COSMOS 2251 DEB", "OBJECT_ID": "1993-036BNK", "EPOCH": "2025-12-13T05:02:01.167072", "MEAN_MOTION": 14.34504437, "ECCENTRICITY": 0.00258213, "INCLINATION": 74.0355, "RA_OF_ASC_NODE": 332.7814, "ARG_OF_PERICENTER": 34.4483, "MEAN_ANOMALY": 341.4849, "EPHEMERIS_TYPE": 0, "CLASSIFICATION_TYPE": "U", "NORAD_CAT_ID": 37530, "ELEMENT_SET_NO": 999, "REV_AT_EPOCH": 85239, "BSTAR": 0.00034742606, "MEAN_MOTION_DOT": 9.57e-06, "MEAN_MOTION_DDOT": 0}, "tle": {"line1": "1 37530U 93036BNK 25347.20973573  .00000957  00000+0  34743-3 0  9990", "line2": "2 37530  74.0355 332.7814 0025821  34.4483 341.4849 14.34504437852391"}}, "geometry": {"type": "Point", "coordinates": [-15.657695422529347, 39.684060911636976]}}, {"type": "Feature", "properties": {"norad_id": 37532, "name": "COSMOS 2251 DEB", "group": "cosmos-2251-debris", "lat": -46.459016536651006, "lon": 50.157977478154116, "alt_km": 755.7736814787822, "timestamp": "2025-12-14T09:36:23.435919+00:00", "meta": {"OBJECT_NAME": "COSMOS 2251 DEB", "OBJECT_ID": "1993-036BNM", "EPOCH": "2025-12-12T21:39:46.748160", "MEAN_MOTION": 14.4240789, "ECCENTRICITY": 0.00159727, "INCLINATION": 74.0496, "RA_OF_ASC_NODE": 215.4183, "ARG_OF_PERICENTER": 316.0746, "MEAN_ANOMALY": 59.3162, "EPHEMERIS_TYPE": 0, "CLASSIFICATION_TYPE": "U", "NORAD_CAT_ID": 37532, "ELEMENT_SET_NO": 999, "REV_AT_EPOCH": 84918, "BSTAR": 0.00031840212, "MEAN_MOTION_DOT": 1.028e-05, "MEAN_MOTION_DDOT": 0}, "tle": {"line1": "1 37532U 93036BNM 25346.90262440  .00001028  00000+0  31840-3 0  9997", "line2": "2 37532  74.0496 215.4183 0015972 316.0746  59.3162 14.42407890849182"}}, "geometry": {"type": "Point", "coordinates": [50.157977478154116, -46.459016536651006]}}, {"type": "Feature", "properties": {"norad_id": 37533, "name": "COSMOS 2251 DEB", "group": "cosmos-2251-debris", "lat": 39.476015451775716, "lon": -4.725546560524994, "alt_km": 879.4321889758667, "timestamp": "2025-12-14T09:36:23.435929+00:00", "meta": {"OBJECT_NAME": "COSMOS 2251 DEB", "OBJECT_ID": "1993-036BNN", "EPOCH": "2025-12-10T19:55:37.417152", "MEAN_MOTION": 14.12152288, "ECCENTRICITY": 0.01580439, "INCLINATION": 74.0697, "RA_OF_ASC_NODE": 195.1706, "ARG_OF_PERICENTER": 252.2523, "MEAN_ANOMALY": 106.1316, "EPHEMERIS_TYPE": 0, "CLASSIFICATION_TYPE": "U", "NORAD_CAT_ID": 37533, "ELEMENT_SET_NO": 999, "REV_AT_EPOCH": 62894, "BSTAR": 0.0019185157, "MEAN_MOTION_DOT": 3.939e-05, "MEAN_MOTION_DDOT": 0}, "tle": {"line1": "1 37533U 93036BNN 25344.83029418  .00003939  00000+0  19185-2 0  9994", "line2": "2 37533  74.0697 195.1706 0158043 252.2523 106.1316 14.12152288628948"}}, "geometry": {"type": "Point", "coordinates": [-4.725546560524994, 39.476015451775716]}}, {"type": "Feature", "properties": {"norad_id": 37535, "name": "COSMOS 2251 DEB", "group": "cosmos-2251-debris", "lat": -20.34471290107919, "lon": 64.23942101799196, "alt_km": 715.5298476862536, "timestamp": "2025-12-14T09:36:23.435939+00:00", "meta": {"OBJECT_NAME": "COSMOS 2251 DEB", "OBJECT_ID": "1993-036BNQ", "EPOCH": "2025-12-13T12:23:58.438176", "MEAN_MOTION": 14.58468554, "ECCENTRICITY": 0.00277454, "INCLINATION": 74.024, "RA_OF_ASC_NODE": 72.0198, "ARG_OF_PERICENTER": 210.8544, "MEAN_ANOMALY": 170.2496, "EPHEMERIS_TYPE": 0, "CLASSIFICATION_TYPE": "U", "NORAD_CAT_ID": 37535, "ELEMENT_SET_NO": 999, "REV_AT_EPOCH": 85336, "BSTAR": 0.0012794491, "MEAN_MOTION_DOT": 5.945e-05, "MEAN_MOTION_DDOT": 0}, "tle": {"line1": "1 37535U 93036BNQ 25347.51664859  .00005945  00000+0  12794-2 0  9996", "line2": "2 37535  74.0240  72.0198 0027745 210.8544 170.2496 14.58468554853362"}}, "geometry": {"type": "Point", "coordinates": [64.23942101799196, -20.34471290107919]}}, {"type": "Feature", "properties": {"norad_id": 37537, "name": "COSMOS 2251 DEB", "group": "cosmos-2251-debris", "lat": 42.10986649185253, "lon": -82.91311977720162, "alt_km": 727.1457707368036, "timestamp": "2025-12-14T09:36:23.435949+00:00", "meta": {"OBJECT_NAME": "COSMOS 2251 DEB", "OBJECT_ID": "1993-036BNS", "EPOCH": "2025-12-11T11:15:11.696832", "MEAN_MOTION": 14.37489039, "ECCENTRICITY": 0.00502138, "INCLINATION": 74.0122, "RA_OF_ASC_NODE": 267.468, "ARG_OF_PERICENTER": 48.0201, "MEAN_ANOMALY": 312.5213, "EPHEMERIS_TYPE": 0, "CLASSIFICATION_TYPE": "U", "NORAD_CAT_ID": 37537, "ELEMENT_SET_NO": 999, "REV_AT_EPOCH": 85015, "BSTAR": 0.0003879169, "MEAN_MOTION_DOT": 1.152e-05, "MEAN_MOTION_DDOT": 0}, "tle": {"line1": "1 37537U 93036BNS 25345.46888538  .00001152  00000+0  38792-3 0  9995", "line2": "2 37537  74.0122 267.4680 0050213  48.0201 312.5213 14.37489039850156"}}, "geometry": {"type": "Point", "coordinates": [-82.91311977720162, 42.10986649185253]}}, {"type": "Feature", "properties": {"norad_id": 37546, "name": "COSMOS 2251 DEB", "group": "cosmos-2251-debris", "lat": 19.084887995274205, "lon": 100.41825794534894, "alt_km": 626.8930397432214, "timestamp": "2025-12-14T09:36:23.435959+00:00", "meta": {"OBJECT_NAME": "COSMOS 2251 DEB", "OBJECT_ID": "1993-036BPB", "EPOCH": "2025-12-12T07:14:41.883360", "MEAN_MOTION": 14.80502899, "ECCENTRICITY": 0.00057425, "INCLINATION": 74.0201, "RA_OF_ASC_NODE": 98.8674, "ARG_OF_PERICENTER": 110.1811, "MEAN_ANOMALY": 249.9983, "EPHEMERIS_TYPE": 0, "CLASSIFICATION_TYPE": "U", "NORAD_CAT_ID": 37546, "ELEMENT_SET_NO": 999, "REV_AT_EPOCH": 65881, "BSTAR": 0.0040733995, "MEAN_MOTION_DOT": 0.00031311, "MEAN_MOTION_DDOT": 0}, "tle": {"line1": "1 37546U 93036BPB 25346.30187365  .00031311  00000+0  40734-2 0  9997", "line2": "2 37546  74.0201  98.8674 0005742 110.1811 249.9983 14.80502899658812"}}, "geometry": {"type": "Point", "coordinates": [100.41825794534894, 19.084887995274205]}}, {"type": "Feature", "properties": {"norad_id": 37959, "name": "COSMOS 2251 DEB", "group": "cosmos-2251-debris", "lat": 70.97261887886489, "lon": 110.02524068692729, "alt_km": 709.9894972789289, "timestamp": "2025-12-14T09:36:23.435969+00:00", "meta": {"OBJECT_NAME": "COSMOS 2251 DEB", "OBJECT_ID": "1993-036BPJ", "EPOCH": "2025-12-12T21:34:00.178752", "MEAN_MOTION": 14.58148187, "ECCENTRICITY": 0.00578327, "INCLINATION": 74.0111, "RA_OF_ASC_NODE": 56.6408, "ARG_OF_PERICENTER": 199.3367, "MEAN_ANOMALY": 281.3245, "EPHEMERIS_TYPE": 0, "CLASSIFICATION_TYPE": "U", "NORAD_CAT_ID": 37959, "ELEMENT_SET_NO": 999, "REV_AT_EPOCH": 80129, "BSTAR": 0.0010632264, "MEAN_MOTION_DOT": 4.988e-05, "MEAN_MOTION_DDOT": 0}, "tle": {"line1": "1 37959U 93036BPJ 25346.89861318  .00004988  00000+0  10632-2 0  9990", "line2": "2 37959  74.0111  56.6408 0057832 199.3367 281.3245 14.58148187801293"}}, "geometry": {"type": "Point", "coordinates": [110.02524068692729, 70.97261887886489]}}, {"type": "Feature", "properties": {"norad_id": 37960, "name": "COSMOS 2251 DEB", "group": "cosmos-2251-debris", "lat": -0.090551883127683, "lon": -176.0436732816423, "alt_km": 1035.4772497184204, "timestamp": "2025-12-14T09:36:23.435978+00:00", "meta": {"OBJECT_NAME": "COSMOS 2251 DEB", "OBJECT_ID": "1993-036BPK", "EPOCH": "2025-12-13T06:19:13.281024", "MEAN_MOTION": 14.0785868, "ECCENTRICITY": 0.02488023, "INCLINATION": 74.0565, "RA_OF_ASC_NODE": 185.9744, "ARG_OF_PERICENTER": 204.5251, "MEAN_ANOMALY": 154.3891, "EPHEMERIS_TYPE": 0, "CLASSIFICATION_TYPE": "U", "NORAD_CAT_ID": 37960, "ELEMENT_SET_NO": 999, "REV_AT_EPOCH": 77413, "BSTAR": 0.0011508414, "MEAN_MOTION_DOT": 2.566e-05, "MEAN_MOTION_DDOT": 0}, "tle": {"line1": "1 37960U 93036BPK 25347.26334816  .00002566  00000+0  11508-2 0  9995", "line2": "2 37960  74.0565 185.9744 0248802 204.5251 154.3891 14.07858680774135"}}, "geometry": {"type": "Point", "coordinates": [-176.0436732816423, -0.090551883127683]}}, {"type": "Feature", "properties": {"norad_id": 37961, "name": "COSMOS 2251 DEB", "group": "cosmos-2251-debris", "lat": 35.27354508707723, "lon": -57.72920391801396, "alt_km": 687.5241140436383, "timestamp": "2025-12-14T09:36:23.435988+00:00", "meta": {"OBJECT_NAME": "COSMOS 2251 DEB", "OBJECT_ID": "1993-036BPL", "EPOCH": "2025-12-13T03:18:27.462240", "MEAN_MOTION": 14.57979799, "ECCENTRICITY": 0.00406759, "INCLINATION": 74.0407, "RA_OF_ASC_NODE": 136.3488, "ARG_OF_PERICENTER": 216.8805, "MEAN_ANOMALY": 142.9561, "EPHEMERIS_TYPE": 0, "CLASSIFICATION_TYPE": "U", "NORAD_CAT_ID": 37961, "ELEMENT_SET_NO": 999, "REV_AT_EPOCH": 80071, "BSTAR": 0.001729191, "MEAN_MOTION_DOT": 8.011e-05, "MEAN_MOTION_DDOT": 0}, "tle": {"line1": "1 37961U 93036BPL 25347.13781785  .00008011  00000+0  17292-2 0  9990", "line2": "2 37961  74.0407 136.3488 0040675 216.8805 142.9561 14.57979799800716"}}, "geometry": {"type": "Point", "coordinates": [-57.72920391801396, 35.27354508707723]}}]}